COSMOS 2251 DEB         
1 35455U 93036AKZ 17345.13588897  .00000600  00000-0  20714-3 0  9995
2 35455  74.0341 276.5006 0126701  10.9917 349.3955 14.33581833445384
